{"type": "FeatureCollection", "features": [ {"type": "Feature", "properties": {"norad_id": 66908, "name": "1998-067XU", "group": "last-30-days", "lat": -50.80524213922773, "lon": 50.51332548412421, "alt_km": 413.25292121653183, "timestamp": "2025-12-15T20:48:52.616182+00:00", "meta": {"OBJECT_NAME": "1998-067XU", "OBJECT_ID": "1998-067XU", "EPOCH": "2025-12-14T18:53:29.082624", "MEAN_MOTION": 15.5183473, "ECCENTRICITY": 0.00042823, "INCLINATION": 51.6294, "RA_OF_ASC_NODE": 132.2114, "ARG_OF_PERICENTER": 238.4154, "MEAN_ANOMALY": 121.6418, "EPHEMERIS_TYPE": 0, "CLASSIFICATION_TYPE": "U", "NORAD_CAT_ID": 66908, "ELEMENT_SET_NO": 999, "REV_AT_EPOCH": 193, "BSTAR": 0.00094476318, "MEAN_MOTION_DOT": 0.00057527, "MEAN_MOTION_DDOT": 0}, "tle": {"line1": "1 66908U 98067XU  25348.78714216  .00057527  00000+0  94476-3 0  9995", "line2": "2 66908  51.6294 132.2114 0004282 238.4154 121.6418 15.51834730  1938"}}, "geometry": {"type": "Point", "coordinates": [50.51332548412421, -50.80524213922773]}}, {"type": "Feature", "properties": {"norad_id": 66909, "name": "SILVERSAT", "group": "last-30-days", "lat": -50.09236939330051, "lon": 55.511647106396495, "alt_km": 413.09804797935976, "timestamp": "2025-12-15T20:48:52.616193+00:00", "meta": {"OBJECT_NAME": "SILVERSAT", "OBJECT_ID": "1998-067XV", "EPOCH": "2025-12-14T21:58:11.659008", "MEAN_MOTION": 15.51959159, "ECCENTRICITY": 0.00041685, "INCLINATION": 51.6297, "RA_OF_ASC_NODE": 131.568, "ARG_OF_PERICENTER": 239.8452, "MEAN_ANOMALY": 120.2125, "EPHEMERIS_TYPE": 0, "CLASSIFICATION_TYPE": "U", "NORAD_CAT_ID": 66909, "ELEMENT_SET_NO": 999, "REV_AT_EPOCH": 195, "BSTAR": 0.00078463431, "MEAN_MOTION_DOT": 0.00047853, "MEAN_MOTION_DDOT": 0}, "tle": {"line1": "1 66909U 98067XV  25348.91541272  .00047853  00000+0  78463-3 0  9990", "line2": "2 66909  51.6297 131.5680 0004168 239.8452 120.2125 15.51959159  1956"}}, "geometry": {"type": "Point", "coordinates": [55.511647106396495, -50.09236939330051]}}, {"type": "Feature", "properties": {"norad_id": 66910, "name": "1998-067XW", "group": "last-30-days", "lat": -46.896433903944114, "lon": 68.97375214312973, "alt_km": 413.74981969170767, "timestamp": "2025-12-15T20:48:52.616205+00:00", "meta": {"OBJECT_NAME": "1998-067XW", "OBJECT_ID": "1998-067XW", "EPOCH": "2025-12-14T23:28:33.119904", "MEAN_MOTION": 15.52053849, "ECCENTRICITY": 0.00048717, "INCLINATION": 51.6296, "RA_OF_ASC_NODE": 131.2373, "ARG_OF_PERICENTER": 219.7417, "MEAN_ANOMALY": 140.3216, "EPHEMERIS_TYPE": 0, "CLASSIFICATION_TYPE": "U", "NORAD_CAT_ID": 66910, "ELEMENT_SET_NO": 999, "REV_AT_EPOCH": 196, "BSTAR": 0.00071781086, "MEAN_MOTION_DOT": 0.0004387, "MEAN_MOTION_DDOT": 0}, "tle": {"line1": "1 66910U 98067XW  25348.97816111  .00043870  00000+0  71781-3 0  9996", "line2": "2 66910  51.6296 131.2373 0004871 219.7417 140.3216 15.52053849  1969"}}, "geometry": {"type": "Point", "coordinates": [68.97375214312973, -46.896433903944114]}}, {"type": "Feature", "properties": {"norad_id": 66911, "name": "1998-067XX", "group": "last-30-days", "lat": -43.44951564714765, "lon": 78.1605687683874, "alt_km": 412.9417946611147, "timestamp": "2025-12-15T20:48:52.616215+00:00", "meta": {"OBJECT_NAME": "1998-067XX", "OBJECT_ID": "1998-067XX", "EPOCH": "2025-12-14T18:48:49.806720", "MEAN_MOTION": 15.52344469, "ECCENTRICITY": 0.00045838, "INCLINATION": 51.6294, "RA_OF_ASC_NODE": 132.1898, "ARG_OF_PERICENTER": 221.2762, "MEAN_ANOMALY": 138.7882, "EPHEMERIS_TYPE": 0, "CLASSIFICATION_TYPE": "U", "NORAD_CAT_ID": 66911, "ELEMENT_SET_NO": 999, "REV_AT_EPOCH": 192, "BSTAR": 0.0010081663, "MEAN_MOTION_DOT": 0.00062604, "MEAN_MOTION_DDOT": 0}, "tle": {"line1": "1 66911U 98067XX  25348.78390980  .00062604  00000+0  10082-2 0  9999", "line2": "2 66911  51.6294 132.1898 0004583 221.2762 138.7882 15.52344469  1928"}}, "geometry": {"type": "Point", "coordinates": [78.1605687683874, -43.44951564714765]}}, {"type": "Feature", "properties": {"norad_id": 66912, "name": "1998-067XY", "group": "last-30-days", "lat": -51.46172965808772, "lon": 30.96331459318862, "alt_km": 414.46158362096867, "timestamp": "2025-12-15T20:48:52.616227+00:00", "meta": {"OBJECT_NAME": "1998-067XY", "OBJECT_ID": "1998-067XY", "EPOCH": "2025-12-14T18:56:09.789216", "MEAN_MOTION": 15.51365838, "ECCENTRICITY": 0.00043478, "INCLINATION": 51.6301, "RA_OF_ASC_NODE": 132.2238, "ARG_OF_PERICENTER": 234.7392, "MEAN_ANOMALY": 125.3191, "EPHEMERIS_TYPE": 0, "CLASSIFICATION_TYPE": "U", "NORAD_CAT_ID": 66912, "ELEMENT_SET_NO": 999, "REV_AT_EPOCH": 192, "BSTAR": 0.00071977927, "MEAN_MOTION_DOT": 0.00042904, "MEAN_MOTION_DDOT": 0}, "tle": {"line1": "1 66912U 98067XY  25348.78900219  .00042904  00000+0  71978-3 0  9995", "line2": "2 66912  51.6301 132.2238 0004347 234.7392 125.3191 15.51365838  1920"}}, "geometry": {"type": "Point", "coordinates": [30.96331459318862, -51.46172965808772]}}, {"type": "Feature", "properties": {"norad_id": 66913, "name": "2025-284A", "group": "last-30-days", "lat": -51.692090749729495, "lon": -41.83332689480419, "alt_km": 509.22988782859466, "timestamp": "2025-12-15T20:48:52.616237+00:00", "meta": {"OBJECT_NAME": "2025-284A", "OBJECT_ID": "2025-284A", "EPOCH": "2025-12-14T21:39:39.043008", "MEAN_MOTION": 15.1901136, "ECCENTRICITY": 0.00119986, "INCLINATION": 80.4039, "RA_OF_ASC_NODE": 127.0231, "ARG_OF_PERICENTER": 197.3946, "MEAN_ANOMALY": 162.6873, "EPHEMERIS_TYPE": 0, "CLASSIFICATION_TYPE": "U", "NORAD_CAT_ID": 66913, "ELEMENT_SET_NO": 999, "REV_AT_EPOCH": 145, "BSTAR": 0.0003431935, "MEAN_MOTION_DOT": 7.216e-05, "MEAN_MOTION_DDOT": 0}, "tle": {"line1": "1 66913U 25284A   25348.90253522  .00007216  00000+0  34319-3 0  9994", "line2": "2 66913  80.4039 127.0231 0011998 197.3946 162.6873 15.19011360  1454"}}, "geometry": {"type": "Point", "coordinates": [-41.83332689480419, -51.692090749729495]}}, {"type": "Feature", "properties": {"norad_id": 66914, "name": "2025-284B", "group": "last-30-days", "lat": -53.123694127991136, "lon": -41.165506090227254, "alt_km": 510.2067690345657, "timestamp": "2025-12-15T20:48:52.616249+00:00", "meta": {"OBJECT_NAME": "2025-284B", "OBJECT_ID": "2025-284B", "EPOCH": "2025-12-14T23:14:02.207040", "MEAN_MOTION": 15.18963049, "ECCENTRICITY": 0.00082672, "INCLINATION": 80.4047, "RA_OF_ASC_NODE": 126.9414, "ARG_OF_PERICENTER": 239.6896, "MEAN_ANOMALY": 120.3514, "EPHEMERIS_TYPE": 0, "CLASSIFICATION_TYPE": "U", "NORAD_CAT_ID": 66914, "ELEMENT_SET_NO": 999, "REV_AT_EPOCH": 146, "BSTAR": 0.0003383275, "MEAN_MOTION_DOT": 7.097e-05, "MEAN_MOTION_DDOT": 0}, "tle": {"line1": "1 66914U 25284B   25348.96808110  .00007097  00000+0  33833-3 0  9997", "line2": "2 66914  80.4047 126.9414 0008267 239.6896 120.3514 15.18963049  1467"}}, "geometry": {"type": "Point", "coordinates": [-41.165506090227254, -53.123694127991136]}}, {"type": "Feature", "properties": {"norad_id": 66915, "name": "HULIANWANG DIGUI-105", "group": "last-30-days", "lat": 13.122379592423059, "lon": -86.75019920203596, "alt_km": 883.3740678067061, "timestamp": "2025-12-15T20:48:52.616260+00:00", "meta": {"OBJECT_NAME": "HULIANWANG DIGUI-105", "OBJECT_ID": "2025-285A", "EPOCH": "2025-12-14T21:49:49.229184", "MEAN_MOTION": 14.03715906, "ECCENTRICITY": 0.0007951, "INCLINATION": 50.0052, "RA_OF_ASC_NODE": 108.4362, "ARG_OF_PERICENTER": 289.9796, "MEAN_ANOMALY": 70.0252, "EPHEMERIS_TYPE": 0, "CLASSIFICATION_TYPE": "U", "NORAD_CAT_ID": 66915, "ELEMENT_SET_NO": 999, "REV_AT_EPOCH": 121, "BSTAR": 0.00012473121, "MEAN_MOTION_DOT": 4.6e-07, "MEAN_MOTION_DDOT": 0}, "tle": {"line1": "1 66915U 25285A   25348.90959756  .00000046  00000+0  12473-3 0  9990", "line2": "2 66915  50.0052 108.4362 0007951 289.9796  70.0252 14.03715906  1213"}}, "geometry": {"type": "Point", "coordinates": [-86.75019920203596, 13.122379592423059]}}, {"type": "Feature", "properties": {"norad_id": 66916, "name": "HULIANWANG DIGUI-106", "group": "last-30-days", "lat": 1.4746766136464062, "lon": -76.73043153814162, "alt_km": 881.7502898349767, "timestamp": "2025-12-15T20:48:52.616273+00:00", "meta": {"OBJECT_NAME": "HULIANWANG DIGUI-106", "OBJECT_ID": "2025-285B", "EPOCH": "2025-12-14T23:28:16.711680", "MEAN_MOTION": 14.04044141, "ECCENTRICITY": 0.00067006, "INCLINATION": 50.0054, "RA_OF_ASC_NODE": 108.1323, "ARG_OF_PERICENTER": 284.172, "MEAN_ANOMALY": 75.844, "EPHEMERIS_TYPE": 0, "CLASSIFICATION_TYPE": "U", "NORAD_CAT_ID": 66916, "ELEMENT_SET_NO": 999, "REV_AT_EPOCH": 122, "BSTAR": 1.4334174e-05, "MEAN_MOTION_DOT": -1.29e-06, "MEAN_MOTION_DDOT": 0}, "tle": {"line1": "1 66916U 25285B   25348.97797120 -.00000129  00000+0  14334-4 0  9995", "line2": "2 66916  50.0054 108.1323 0006700 284.1720  75.8440 14.04044141  1225"}}, "geometry": {"type": "Point", "coordinates": [-76.73043153814162, 1.4746766136464062]}}, {"type": "Feature", "properties": {"norad_id": 66917, "name": "HULIANWANG DIGUI-107", "group": "last-30-days", "lat": -6.339632483960199, "lon": -70.1639492218748, "alt_km": 878.9759639952654, "timestamp": "2025-12-15T20:48:52.616285+00:00", "meta": {"OBJECT_NAME": "HULIANWANG DIGUI-107", "OBJECT_ID": "2025-285C", "EPOCH": "2025-12-14T23:26:20.920128", "MEAN_MOTION": 14.05118032, "ECCENTRICITY": 0.00074239, "INCLINATION": 50.0018, "RA_OF_ASC_NODE": 108.1205, "ARG_OF_PERICENTER": 291.8151, "MEAN_ANOMALY": 68.1964, "EPHEMERIS_TYPE": 0, "CLASSIFICATION_TYPE": "U", "NORAD_CAT_ID": 66917, "ELEMENT_SET_NO": 999, "REV_AT_EPOCH": 122, "BSTAR": 9.4876933e-05, "MEAN_MOTION_DOT": 2e-08, "MEAN_MOTION_DDOT": 0}, "tle": {"line1": "1 66917U 25285C   25348.97663102  .00000002  00000+0  94877-4 0  9997", "line2": "2 66917  50.0018 108.1205 0007423 291.8151  68.1964 14.05118032  1229"}}, "geometry": {"type": "Point", "coordinates": [-70.1639492218748, -6.339632483960199]}}]}